{
  "type": "FeatureCollection",
  "features": [
    {
      "type": "Feature",
      "properties": {
        "norad_id": 33822,
        "name": "COSMOS 2251 DEB",
        "group": "cosmos-2251-debris",
        "lat": -38.212788981021625,
        "lon": -174.90035220542828,
        "alt_km": 824.7730899082017,
        "timestamp": "2025-12-10T05:46:14.219336+00:00",
        "meta_object_name": "COSMOS 2251 DEB",
        "meta_object_id": "1993-036BP",
        "meta_epoch": "2025-12-09T14:48:56.346912",
        "meta_mean_motion": 14.13047217,
        "meta_eccentricity": 0.0153558,
        "meta_inclination": 74.0694,
        "meta_ra_of_asc_node": 199.1939,
        "meta_arg_of_pericenter": 246.2572,
        "meta_mean_anomaly": 143.5365,
        "meta_ephemeris_type": 0,
        "meta_classification_type": "U",
        "meta_norad_cat_id": 33822,
        "meta_element_set_no": 999,
        "meta_rev_at_epoch": 86010,
        "meta_bstar": 0.0018479,
        "meta_mean_motion_dot": 3.834e-05,
        "meta_mean_motion_ddot": 0,
        "tle_line1": "1 33822U 93036BP  25343.61731883  .00003834  00000+0  18479-2 0  9991",
        "tle_line2": "2 33822  74.0694 199.1939 0153558 246.2572 143.5365 14.13047217860108"
      },
      "geometry": {
        "type": "Point",
        "coordinates": [
          -174.90035220542828,
          -38.212788981021625
        ]
      }
    },
    {
      "type": "Feature",
      "properties": {
        "norad_id": 33823,
        "name": "COSMOS 2251 DEB",
        "group": "cosmos-2251-debris",
        "lat": -73.4858146728117,
        "lon": 52.207029037704494,
        "alt_km": 755.5971196286282,
        "timestamp": "2025-12-10T05:46:14.219346+00:00",
        "meta_object_name": "COSMOS 2251 DEB",
        "meta_object_id": "1993-036BQ",
        "meta_epoch": "2025-12-09T18:17:16.876032",
        "meta_mean_motion": 13.98939354,
        "meta_eccentricity": 0.0209296,
        "meta_inclination": 73.8096,
        "meta_ra_of_asc_node": 154.5493,
        "meta_arg_of_pericenter": 280.1878,
        "meta_mean_anomaly": 98.4683,
        "meta_ephemeris_type": 0,
        "meta_classification_type": "U",
        "meta_norad_cat_id": 33823,
        "meta_element_set_no": 999,
        "meta_rev_at_epoch": 85568,
        "meta_bstar": 0.0011857,
        "meta_mean_motion_dot": 2.038e-05,
        "meta_mean_motion_ddot": 0,
        "tle_line1": "1 33823U 93036BQ  25343.76200088  .00002038  00000+0  11857-2 0  9994",
        "tle_line2": "2 33823  73.8096 154.5493 0209296 280.1878  98.4683 13.98939354855681"
      },
      "geometry": {
        "type": "Point",
        "coordinates": [
          52.207029037704494,
          -73.4858146728117
        ]
      }
    },
    {
      "type": "Feature",
      "properties": {
        "norad_id": 33825,
        "name": "COSMOS 2251 DEB",
        "group": "cosmos-2251-debris",
        "lat": 2.998528807226211,
        "lon": 33.51331695283696,
        "alt_km": 604.8403212472222,
        "timestamp": "2025-12-10T05:46:14.219357+00:00",
        "meta_object_name": "COSMOS 2251 DEB",
        "meta_object_id": "1993-036BS",
        "meta_epoch": "2025-12-09T14:08:57.521760",
        "meta_mean_motion": 14.69720693,
        "meta_eccentricity": 0.0084389,
        "meta_inclination": 73.985,
        "meta_ra_of_asc_node": 33.9162,
        "meta_arg_of_pericenter": 1.7359,
        "meta_mean_anomaly": 159.0209,
        "meta_ephemeris_type": 0,
        "meta_classification_type": "U",
        "meta_norad_cat_id": 33825,
        "meta_element_set_no": 999,
        "meta_rev_at_epoch": 88833,
        "meta_bstar": 0.0011216,
        "meta_mean_motion_dot": 7.033e-05,
        "meta_mean_motion_ddot": 0,
        "tle_line1": "1 33825U 93036BS  25343.58955465  .00007033  00000+0  11216-2 0  9991",
        "tle_line2": "2 33825  73.9850  33.9162 0084389   1.7359 159.0209 14.69720693888339"
      },
      "geometry": {
        "type": "Point",
        "coordinates": [
          33.51331695283696,
          2.998528807226211
        ]
      }
    },
    {
      "type": "Feature",
      "properties": {
        "norad_id": 33826,
        "name": "COSMOS 2251 DEB",
        "group": "cosmos-2251-debris",
        "lat": 51.51513765215996,
        "lon": 75.63742745480829,
        "alt_km": 673.0109788398695,
        "timestamp": "2025-12-10T05:46:14.219368+00:00",
        "meta_object_name": "COSMOS 2251 DEB",
        "meta_object_id": "1993-036BT",
        "meta_epoch": "2025-12-09T11:24:12.838176",
        "meta_mean_motion": 14.516744,
        "meta_eccentricity": 0.00835527,
        "meta_inclination": 74.0648,
        "meta_ra_of_asc_node": 56.0133,
        "meta_arg_of_pericenter": 101.4277,
        "meta_mean_anomaly": 275.9832,
        "meta_ephemeris_type": 0,
        "meta_classification_type": "U",
        "meta_norad_cat_id": 33826,
        "meta_element_set_no": 999,
        "meta_rev_at_epoch": 87722,
        "meta_bstar": 0.0016873217,
        "meta_mean_motion_dot": 7.063e-05,
        "meta_mean_motion_ddot": 0,
        "tle_line1": "1 33826U 93036BT  25343.47514859  .00007063  00000+0  16873-2 0  9995",
        "tle_line2": "2 33826  74.0648  56.0133 0083552 101.4277 275.9832 14.51674400877220"
      },
      "geometry": {
        "type": "Point",
        "coordinates": [
          75.63742745480829,
          51.51513765215996
        ]
      }
    },
    {
      "type": "Feature",
      "properties": {
        "norad_id": 33828,
        "name": "COSMOS 2251 DEB",
        "group": "cosmos-2251-debris",
        "lat": 17.57628884407595,
        "lon": -112.06321165882459,
        "alt_km": 734.5931125695624,
        "timestamp": "2025-12-10T05:46:14.219379+00:00",
        "meta_object_name": "COSMOS 2251 DEB",
        "meta_object_id": "1993-036BV",
        "meta_epoch": "2025-12-09T12:13:16.169088",
        "meta_mean_motion": 14.44317561,
        "meta_eccentricity": 0.0029421,
        "meta_inclination": 74.0469,
        "meta_ra_of_asc_node": 244.0973,
        "meta_arg_of_pericenter": 317.5075,
        "meta_mean_anomaly": 220.0939,
        "meta_ephemeris_type": 0,
        "meta_classification_type": "U",
        "meta_norad_cat_id": 33828,
        "meta_element_set_no": 999,
        "meta_rev_at_epoch": 88266,
        "meta_bstar": 0.00084562767,
        "meta_mean_motion_dot": 2.899e-05,
        "meta_mean_motion_ddot": 0,
        "tle_line1": "1 33828U 93036BV  25343.50921492  .00002899  00000+0  84563-3 0  9990",
        "tle_line2": "2 33828  74.0469 244.0973 0029421 317.5075 220.0939 14.44317561882662"
      },
      "geometry": {
        "type": "Point",
        "coordinates": [
          -112.06321165882459,
          17.57628884407595
        ]
      }
    },
    {
      "type": "Feature",
      "properties": {
        "norad_id": 33830,
        "name": "COSMOS 2251 DEB",
        "group": "cosmos-2251-debris",
        "lat": -38.05343127209464,
        "lon": -137.685533269554,
        "alt_km": 621.1935130475722,
        "timestamp": "2025-12-10T05:46:14.219390+00:00",
        "meta_object_name": "COSMOS 2251 DEB",
        "meta_object_id": "1993-036BX",
        "meta_epoch": "2025-12-09T11:15:47.484576",
        "meta_mean_motion": 14.76833095,
        "meta_eccentricity": 0.0042277,
        "meta_inclination": 74.0321,
        "meta_ra_of_asc_node": 236.7777,
        "meta_arg_of_pericenter": 357.481,
        "meta_mean_anomaly": 184.8508,
        "meta_ephemeris_type": 0,
        "meta_classification_type": "U",
        "meta_norad_cat_id": 33830,
        "meta_element_set_no": 999,
        "meta_rev_at_epoch": 89423,
        "meta_bstar": 0.001353622,
        "meta_mean_motion_dot": 9.625e-05,
        "meta_mean_motion_ddot": 0,
        "tle_line1": "1 33830U 93036BX  25343.46929959  .00009625  00000+0  13536-2 0  9999",
        "tle_line2": "2 33830  74.0321 236.7777 0042277 357.4810 184.8508 14.76833095894231"
      },
      "geometry": {
        "type": "Point",
        "coordinates": [
          -137.685533269554,
          -38.05343127209464
        ]
      }
    },
    {
      "type": "Feature",
      "properties": {
        "norad_id": 33832,
        "name": "COSMOS 2251 DEB",
        "group": "cosmos-2251-debris",
        "lat": 22.439845685562748,
        "lon": 27.962387219530946,
        "alt_km": 690.4830470307352,
        "timestamp": "2025-12-10T05:46:14.219400+00:00",
        "meta_object_name": "COSMOS 2251 DEB",
        "meta_object_id": "1993-036BZ",
        "meta_epoch": "2025-12-09T10:10:36.752736",
        "meta_mean_motion": 14.60580633,
        "meta_eccentricity": 0.00251552,
        "meta_inclination": 74.0535,
        "meta_ra_of_asc_node": 216.3008,
        "meta_arg_of_pericenter": 248.0888,
        "meta_mean_anomaly": 297.7158,
        "meta_ephemeris_type": 0,
        "meta_classification_type": "U",
        "meta_norad_cat_id": 33832,
        "meta_element_set_no": 999,
        "meta_rev_at_epoch": 88376,
        "meta_bstar": 0.0018749712,
        "meta_mean_motion_dot": 9.136e-05,
        "meta_mean_motion_ddot": 0,
        "tle_line1": "1 33832U 93036BZ  25343.42403649  .00009136  00000+0  18750-2 0  9990",
        "tle_line2": "2 33832  74.0535 216.3008 0025155 248.0888 297.7158 14.60580633883768"
      },
      "geometry": {
        "type": "Point",
        "coordinates": [
          27.962387219530946,
          22.439845685562748
        ]
      }
    }
  ]
}